STARLINK-1031
1 14736C 19074Z   21326.16720347  .00005504  00000-0  36878-3 0  3262
2 14736  53.0554  47.9985 0001330  80.0021 164.6059 15.06391802    15
